NORAD_CAT_ID,OBJECT_NAME,OBJECT_TYPE,EPOCH,MEAN_MOTION,ECCENTRICITY,INCLINATION,RA_OF_ASC_NODE,ARG_OF_PERICENTER,MEAN_ANOMALY,BSTAR,MEAN_MOTION_DOT,MEAN_MOTION_DDOT,TLE_LINE0,TLE_LINE1,TLE_LINE2,SEMIMAJOR_AXIS,PERIOD,APOGEE,PERIGEE,DECAYED
49155.0,STARLINK-3060,PAYLOAD,2022-01-24 14:00:01,15.69714701,0.000436,69.9983,114.5092,298.0466,320.1502,0.00042301,0.00050527,0.0,0 STARLINK-3060,1 49155U 21082AB  22024.58334491  .00050527  00000-0  42301-3 0  9996,2 49155  69.9983 114.5092 0004360 298.0466 320.1502 15.69714701  3670,6737.85,91.736,362.653,356.778,0.0
49155.0,STARLINK-3060,PAYLOAD,2022-01-24 22:00:00,15.69760174,0.0004317,69.998,113.572,296.279,45.0191,-0.00018358,-0.00022085,0.0,0 STARLINK-3060,1 49155U 21082AB  22024.91667824 -.00022085  00000-0 -18358-3 0  9997,2 49155  69.9980 113.5720 0004317 296.2790  45.0191 15.69760174  3689,6737.72,91.734,362.494,356.677,0.0
49155.0,STARLINK-3060,PAYLOAD,2022-01-25 06:00:00,15.69774991,0.0004184,69.9983,112.6349,293.4033,131.0148,1.893e-05,2.05e-05,0.0,0 STARLINK-3060,1 49155U 21082AB  22025.25001157  .00002050  00000-0  18930-4 0  9991,2 49155  69.9983 112.6349 0004184 293.4033 131.0148 15.69774991 22074,6737.678000000001,91.733,362.362,356.724,0.0
49155.0,STARLINK-3060,PAYLOAD,2022-01-25 14:00:01,15.69744242,0.0004267,69.9985,111.6977,298.9278,208.6649,-6.2684e-05,-7.689e-05,0.0,0 STARLINK-3060,1 49155U 21082AB  22025.58334491 -.00007689  00000-0 -62684-4 0  9997,2 49155  69.9985 111.6977 0004267 298.9278 208.6649 15.69744242  3673,6737.766,91.735,362.506,356.756,0.0
49155.0,STARLINK-3060,PAYLOAD,2022-01-25 22:00:00,15.69760862,0.0004065,69.9983,110.7607,298.3507,292.3675,-0.00015765,-0.00019002,0.0,0 STARLINK-3060,1 49155U 21082AB  22025.91667824 -.00019002  00000-0 -15765-3 0  9992,2 49155  69.9983 110.7607 0004065 298.3507 292.3675 15.69760862 22177,6737.718000000003,91.734,362.322,356.844,0.0
49155.0,STARLINK-3060,PAYLOAD,2022-01-26 14:00:01,15.69716432,0.0004436,69.9984,108.8869,298.5389,98.4305,0.00046798,0.00055963,0.0,0 STARLINK-3060,1 49155U 21082AB  22026.58334491  .00055963  00000-0  46798-3 0  9991,2 49155  69.9984 108.8869 0004436 298.5389  98.4305 15.69716432  3693,6737.845,91.736,362.699,356.721,0.0
49155.0,STARLINK-3060,PAYLOAD,2022-01-26 22:00:00,15.69761169,0.0004369,69.9981,107.9497,296.7067,183.3763,-6.924e-05,-8.476e-05,0.0,0 STARLINK-3060,1 49155U 21082AB  22026.91667824 -.00008476  00000-0 -69240-4 0  9994,2 49155  69.9981 107.9497 0004369 296.7067 183.3763 15.69761169 22336,6737.717,91.734,362.526,356.639,0.0
49155.0,STARLINK-3060,PAYLOAD,2022-01-27 12:47:02,15.69773156,0.0004323,69.999,106.2185,294.8666,65.208,0.0001018,0.00011971,0.0,0 STARLINK-3060,1 49155U 21082AB  22027.53266507  .00011971  00000-0  10180-3 0  9996,2 49155  69.9990 106.2185 0004323 294.8666  65.2080 15.69773156 22436,6737.683000000001,91.733,362.461,356.635,0.0
49155.0,STARLINK-3060,PAYLOAD,2022-01-27 22:00:00,15.69695528,0.0004348,69.9988,105.1387,296.4273,73.0576,-1.7402e-05,-2.285e-05,0.0,0 STARLINK-3060,1 49155U 21082AB  22027.91667824 -.00002285  00000-0 -17402-4 0  9990,2 49155  69.9988 105.1387 0004348 296.4273  73.0576 15.69695528 22493,6737.905,91.738,362.7,356.841,0.0
49155.0,STARLINK-3060,PAYLOAD,2022-01-28 06:00:02,15.697306,0.0004309,69.9991,104.202,294.4584,158.1522,0.00010835,0.00012734,0.0,0 STARLINK-3060,1 49155U 21082AB  22028.25002315  .00012734  00000-0  10835-3 0  9996,2 49155  69.9991 104.2020 0004309 294.4584 158.1522 15.69730600 22544,6737.805,91.735,362.573,356.766,0.0
49155.0,STARLINK-3060,PAYLOAD,2022-01-28 12:00:00,15.69719994,0.0004486,69.9989,103.4995,297.7939,127.0803,0.00018918,0.00022409,0.0,0 STARLINK-3060,1 49155U 21082AB  22028.50001157  .00022409  00000-0  18918-3 0  9997,2 49155  69.9989 103.4995 0004486 297.7939 127.0803 15.69719994  3672,6737.835,91.736,362.723,356.67800000000005,0.0
49155.0,STARLINK-3060,PAYLOAD,2022-01-28 22:00:00,15.69756566,0.0004437,69.9987,102.3281,296.7436,322.0266,5.1431e-05,5.934e-05,0.0,0 STARLINK-3060,1 49155U 21082AB  22028.91667824  .00005934  00000-0  51431-4 0  9993,2 49155  69.9987 102.3281 0004437 296.7436 322.0266 15.69756566  3679,6737.73,91.734,362.585,356.606,0.0
49155.0,STARLINK-3060,PAYLOAD,2022-01-29 14:00:01,15.69758665,0.0004418,69.9991,100.4539,299.8472,125.2398,-5.8535e-05,-7.199e-05,0.0,0 STARLINK-3060,1 49155U 21082AB  22029.58334491 -.00007199  00000-0 -58535-4 0  9997,2 49155  69.9991 100.4539 0004418 299.8472 125.2398 15.69758665 22753,6737.724,91.734,362.566,356.61300000000006,0.0
49155.0,STARLINK-3060,PAYLOAD,2022-01-29 22:00:00,15.69779526,0.0004265,69.9989,99.5171,298.0383,210.1868,-0.00056847,-0.0006763,0.0,0 STARLINK-3060,1 49155U 21082AB  22029.91667824 -.00067630  00000-0 -56847-3 0  9992,2 49155  69.9989  99.5171 0004265 298.0383 210.1868 15.69779526  3699,6737.665,91.733,362.403,356.656,0.0
49155.0,STARLINK-3060,PAYLOAD,2022-01-30 14:00:01,15.69712819,0.000458,69.9989,97.6434,299.6072,14.8644,0.00052599,0.00062972,0.0,0 STARLINK-3060,1 49155U 21082AB  22030.58334491  .00062972  00000-0  52599-3 0  9990,2 49155  69.9989  97.6434 0004580 299.6072  14.8644 15.69712819  3707,6737.856,91.737,362.807,356.635,0.0
49155.0,STARLINK-3060,PAYLOAD,2022-01-30 22:00:00,15.69755037,0.0004366,69.9986,96.7062,296.6874,100.9102,-0.00051293,-0.00061031,0.0,0 STARLINK-3060,1 49155U 21082AB  22030.91667824 -.00061031  00000-0 -51293-3 0  9993,2 49155  69.9986  96.7062 0004366 296.6874 100.9102 15.69755037 22964,6737.735,91.734,362.542,356.658,0.0
49155.0,STARLINK-3060,PAYLOAD,2022-01-31 14:00:01,15.69736719,0.0004499,69.9986,94.832,300.2186,263.6494,-7.0822e-05,-8.656e-05,0.0,0 STARLINK-3060,1 49155U 21082AB  22031.58335648 -.00008656  00000-0 -70822-4 0  9997,2 49155  69.9986  94.8320 0004499 300.2186 263.6494 15.69736719 23064,6737.7869999999975,91.735,362.684,356.621,0.0
49155.0,STARLINK-3060,PAYLOAD,2022-01-31 22:00:01,15.6970598,0.000445,69.9984,93.8951,297.2119,349.7902,0.00023303,0.00027654,0.0,0 STARLINK-3060,1 49155U 21082AB  22031.91668981  .00027654  00000-0  23303-3 0  9991,2 49155  69.9984  93.8951 0004450 297.2119 349.7902 15.69705980  3681,6737.875,91.737,362.739,356.742,0.0
49155.0,STARLINK-3060,PAYLOAD,2022-02-01 14:00:01,15.69731642,0.000467,69.9999,92.0211,299.2682,153.9441,0.00058696,0.00070414,0.0,0 STARLINK-3060,1 49155U 21082AB  22032.58335648  .00070414  00000-0  58696-3 0  9991,2 49155  69.9999  92.0211 0004670 299.2682 153.9441 15.69731642 23227,6737.802,91.735,362.81300000000016,356.52,0.0
49155.0,STARLINK-3060,PAYLOAD,2022-02-01 22:00:00,15.69762737,0.0004468,70.0001,91.084,296.7211,239.5747,-0.00034719,-0.00041489,0.0,0 STARLINK-3060,1 49155U 21082AB  22032.91667824 -.00041489  00000-0 -34719-3 0  9994,2 49155  70.0001  91.0840 0004468 296.7211 239.5747 15.69762737 23270,6737.7130000000025,91.734,362.588,356.56699999999995,0.0
49155.0,STARLINK-3060,PAYLOAD,2022-02-02 14:00:01,15.69757536,0.0004587,69.9999,89.21,300.5182,42.0194,5.0046e-05,5.769e-05,0.0,0 STARLINK-3060,1 49155U 21082AB  22033.58334491  .00005769  00000-0  50046-4 0  9990,2 49155  69.9999  89.2100 0004587 300.5182  42.0194 15.69757536 23379,6737.728,91.734,362.6830000000001,356.50199999999984,0.0
49155.0,STARLINK-3060,PAYLOAD,2022-02-02 22:00:00,15.69725836,0.0004449,69.9998,88.2728,296.5793,129.1204,-6.354100000000001e-05,-7.786e-05,0.0,0 STARLINK-3060,1 49155U 21082AB  22033.91667824 -.00007786  00000-0 -63541-4 0  9993,2 49155  69.9998  88.2728 0004449 296.5793 129.1204 15.69725836  3692,6737.818,91.736,362.681,356.686,0.0
49155.0,STARLINK-3060,PAYLOAD,2022-02-03 06:00:00,15.69721324,0.0004406,70.0003,87.3359,296.49,212.3017,-0.00029852,-0.00035666,0.0,0 STARLINK-3060,1 49155U 21082AB  22034.25001157 -.00035666  00000-0 -29852-3 0  9996,2 49155  70.0003  87.3359 0004406 296.4900 212.3017 15.69721324 23488,6737.831,91.736,362.665,356.728,0.0
49155.0,STARLINK-3060,PAYLOAD,2022-02-03 14:00:01,15.69681182,0.0004597,69.9999,86.3989,300.1968,291.6767,0.00056763,0.00067925,0.0,0 STARLINK-3060,1 49155U 21082AB  22034.58334491  .00067925  00000-0  56763-3 0  9994,2 49155  69.9999  86.3989 0004597 300.1968 291.6767 15.69681182  3684,6737.946,91.738,362.909,356.714,0.0
49155.0,STARLINK-3060,PAYLOAD,2022-02-03 20:00:01,15.69741851,0.0004452,69.9995,85.696,298.1614,266.094,1.4835e-05,1.558e-05,0.0,0 STARLINK-3060,1 49155U 21082AB  22034.83335648  .00001558  00000-0  14835-4 0  9992,2 49155  69.9995  85.6960 0004452 298.1614 266.0940 15.69741851 23574,6737.773,91.735,362.637,356.63800000000015,0.0
49155.0,STARLINK-3060,PAYLOAD,2022-02-03 22:00:01,15.69711274,0.0004386999999999,69.9995,85.4618,296.5242,18.5194,0.0006552,0.00078631,0.0,0 STARLINK-3060,1 49155U 21082AB  22034.91668981  .00078631  00000-0  65520-3 0  9992,2 49155  69.9995  85.4618 0004387 296.5242  18.5194 15.69711274  3696,6737.86,91.737,362.681,356.769,0.0
49155.0,STARLINK-3060,PAYLOAD,2022-02-04 06:00:00,15.69808256,0.0004446,69.9997,84.5247,295.9995,102.1012,-4.7737e-05,-5.923e-05,0.0,0 STARLINK-3060,1 49155U 21082AB  22035.25001157 -.00005923  00000-0 -47737-4 0  9993,2 49155  69.9997  84.5247 0004446 295.9995 102.1012 15.69808256 23643,6737.583000000001,91.731,362.443,356.452,0.0
49155.0,STARLINK-3060,PAYLOAD,2022-02-04 14:00:01,15.69808253,0.0004513999999999,69.9996,83.5877,300.9707,180.3672,-0.00014161,-0.00017129,0.0,0 STARLINK-3060,1 49155U 21082AB  22035.58335648 -.00017129  00000-0 -14161-3 0  9999,2 49155  69.9996  83.5877 0004514 300.9707 180.3672 15.69808253  3694,6737.583000000001,91.731,362.489,356.406,0.0
49155.0,STARLINK-3060,PAYLOAD,2022-02-04 22:00:00,15.69752022,0.0004326,69.9998,82.6504,297.6125,266.8617,-0.00031708,-0.00037907,0.0,0 STARLINK-3060,1 49155U 21082AB  22035.91667824 -.00037907  00000-0 -31708-3 0  9992,2 49155  69.9998  82.6504 0004326 297.6125 266.8617 15.69752022 23749,6737.744000000002,91.734,362.523,356.694,0.0
